FENGYUN 1C DEB          
1 30884U 99025AXW 17345.23449069  .00000692  00000-0  21128-3 0  9999
2 30884  98.9245 146.9946 0111486 111.2348 250.0791 14.41743544563445
